CCSDS_OMM_VERS = 2.0
CREATION_DATE  = 
ORIGINATOR     = 

OBJECT_NAME    = STARLINK-35770
OBJECT_ID      = 2025-288U
CENTER_NAME    = EARTH
REF_FRAME      = TEME
TIME_SYSTEM    = UTC
MEAN_ELEMENT_THEORY = SGP/SGP4

EPOCH          = 2026-01-01T06:16:56.152992
MEAN_MOTION    = 15.50601002
ECCENTRICITY   = .00011975
INCLINATION    = 43.0009
RA_OF_ASC_NODE = 49.5818
ARG_OF_PERICENTER = 268.0522
MEAN_ANOMALY   = 92.0201

EPHEMERIS_TYPE = 0
CLASSIFICATION_TYPE = U
NORAD_CAT_ID   = 66977
ELEMENT_SET_NO = 999
REV_AT_EPOCH   = 491
BSTAR          = .13666269E-2
MEAN_MOTION_DOT = .80726E-3
MEAN_MOTION_DDOT = 0

CCSDS_OMM_VERS = 2.0
CREATION_DATE  = 
ORIGINATOR     = 

OBJECT_NAME    = STARLINK-35787
OBJECT_ID      = 2025-288V
CENTER_NAME    = EARTH
REF_FRAME      = TEME
TIME_SYSTEM    = UTC
MEAN_ELEMENT_THEORY = SGP/SGP4

EPOCH          = 2026-01-01T06:00:02.000160
MEAN_MOTION    = 15.40649891
ECCENTRICITY   = .00009279
INCLINATION    = 43.0006
RA_OF_ASC_NODE = 49.7428
ARG_OF_PERICENTER = 277.5310
MEAN_ANOMALY   = 339.2845

EPHEMERIS_TYPE = 0
CLASSIFICATION_TYPE = U
NORAD_CAT_ID   = 66978
ELEMENT_SET_NO = 999
REV_AT_EPOCH   = 496
BSTAR          = .9484076E-3
MEAN_MOTION_DOT = .39452E-3
MEAN_MOTION_DDOT = 0

CCSDS_OMM_VERS = 2.0
CREATION_DATE  = 
ORIGINATOR     = 

OBJECT_NAME    = STARLINK-36107
OBJECT_ID      = 2025-288W
CENTER_NAME    = EARTH
REF_FRAME      = TEME
TIME_SYSTEM    = UTC
MEAN_ELEMENT_THEORY = SGP/SGP4

EPOCH          = 2026-01-01T06:14:57.552576
MEAN_MOTION    = 15.50577309
ECCENTRICITY   = .00016781
INCLINATION    = 43.0015
RA_OF_ASC_NODE = 49.5711
ARG_OF_PERICENTER = 275.4975
MEAN_ANOMALY   = 84.5694

EPHEMERIS_TYPE = 0
CLASSIFICATION_TYPE = U
NORAD_CAT_ID   = 66979
ELEMENT_SET_NO = 999
REV_AT_EPOCH   = 491
BSTAR          = .17537519E-2
MEAN_MOTION_DOT = .103913E-2
MEAN_MOTION_DDOT = 0

CCSDS_OMM_VERS = 2.0
CREATION_DATE  = 
ORIGINATOR     = 

OBJECT_NAME    = STARLINK-36086
OBJECT_ID      = 2025-288X
CENTER_NAME    = EARTH
REF_FRAME      = TEME
TIME_SYSTEM    = UTC
MEAN_ELEMENT_THEORY = SGP/SGP4

EPOCH          = 2026-01-01T04:41:51.916128
MEAN_MOTION    = 15.49779247
ECCENTRICITY   = .00011106
INCLINATION    = 43.0008
RA_OF_ASC_NODE = 49.9447
ARG_OF_PERICENTER = 250.4076
MEAN_ANOMALY   = 109.6664

EPHEMERIS_TYPE = 0
CLASSIFICATION_TYPE = U
NORAD_CAT_ID   = 66980
ELEMENT_SET_NO = 999
REV_AT_EPOCH   = 490
BSTAR          = -.12653233E-1
MEAN_MOTION_DOT = -.663525E-2
MEAN_MOTION_DDOT = 0

CCSDS_OMM_VERS = 2.0
CREATION_DATE  = 
ORIGINATOR     = 

OBJECT_NAME    = STARLINK-36142
OBJECT_ID      = 2025-288Y
CENTER_NAME    = EARTH
REF_FRAME      = TEME
TIME_SYSTEM    = UTC
MEAN_ELEMENT_THEORY = SGP/SGP4

EPOCH          = 2026-01-01T06:13:58.175040
MEAN_MOTION    = 15.50626026
ECCENTRICITY   = .00013155
INCLINATION    = 43.0008
RA_OF_ASC_NODE = 49.5647
ARG_OF_PERICENTER = 253.9452
MEAN_ANOMALY   = 106.1264

EPHEMERIS_TYPE = 0
CLASSIFICATION_TYPE = U
NORAD_CAT_ID   = 66981
ELEMENT_SET_NO = 999
REV_AT_EPOCH   = 491
BSTAR          = .21758232E-2
MEAN_MOTION_DOT = .129655E-2
MEAN_MOTION_DDOT = 0

CCSDS_OMM_VERS = 2.0
CREATION_DATE  = 
ORIGINATOR     = 

OBJECT_NAME    = STARLINK-36113
OBJECT_ID      = 2025-288Z
CENTER_NAME    = EARTH
REF_FRAME      = TEME
TIME_SYSTEM    = UTC
MEAN_ELEMENT_THEORY = SGP/SGP4

EPOCH          = 2026-01-01T06:13:28.414560
MEAN_MOTION    = 15.50581922
ECCENTRICITY   = .00014142
INCLINATION    = 43.0012
RA_OF_ASC_NODE = 49.5617
ARG_OF_PERICENTER = 270.0617
MEAN_ANOMALY   = 90.0081

EPHEMERIS_TYPE = 0
CLASSIFICATION_TYPE = U
NORAD_CAT_ID   = 66982
ELEMENT_SET_NO = 999
REV_AT_EPOCH   = 491
BSTAR          = .16458731E-2
MEAN_MOTION_DOT = .97434E-3
MEAN_MOTION_DDOT = 0

CCSDS_OMM_VERS = 2.0
CREATION_DATE  = 
ORIGINATOR     = 

OBJECT_NAME    = STARLINK-36145
OBJECT_ID      = 2025-288AA
CENTER_NAME    = EARTH
REF_FRAME      = TEME
TIME_SYSTEM    = UTC
MEAN_ELEMENT_THEORY = SGP/SGP4

EPOCH          = 2026-01-01T06:12:29.368800
MEAN_MOTION    = 15.50589012
ECCENTRICITY   = .00009243
INCLINATION    = 43.0010
RA_OF_ASC_NODE = 49.5557
ARG_OF_PERICENTER = 255.5578
MEAN_ANOMALY   = 104.5180

EPHEMERIS_TYPE = 0
CLASSIFICATION_TYPE = U
NORAD_CAT_ID   = 66983
ELEMENT_SET_NO = 999
REV_AT_EPOCH   = 491
BSTAR          = .14998063E-2
MEAN_MOTION_DOT = .88678E-3
MEAN_MOTION_DDOT = 0

CCSDS_OMM_VERS = 2.0
CREATION_DATE  = 
ORIGINATOR     = 

OBJECT_NAME    = STARLINK-35591
OBJECT_ID      = 2025-288AB
CENTER_NAME    = EARTH
REF_FRAME      = TEME
TIME_SYSTEM    = UTC
MEAN_ELEMENT_THEORY = SGP/SGP4

EPOCH          = 2026-01-01T06:12:59.044608
MEAN_MOTION    = 15.50608301
ECCENTRICITY   = .00011827
INCLINATION    = 43.0007
RA_OF_ASC_NODE = 49.5580
ARG_OF_PERICENTER = 267.6161
MEAN_ANOMALY   = 92.4563

EPHEMERIS_TYPE = 0
CLASSIFICATION_TYPE = U
NORAD_CAT_ID   = 66984
ELEMENT_SET_NO = 999
REV_AT_EPOCH   = 491
BSTAR          = .18090551E-2
MEAN_MOTION_DOT = .107365E-2
MEAN_MOTION_DDOT = 0

CCSDS_OMM_VERS = 2.0
CREATION_DATE  = 
ORIGINATOR     = 

OBJECT_NAME    = STARLINK-36103
OBJECT_ID      = 2025-288AC
CENTER_NAME    = EARTH
REF_FRAME      = TEME
TIME_SYSTEM    = UTC
MEAN_ELEMENT_THEORY = SGP/SGP4

EPOCH          = 2026-01-01T06:12:00.309024
MEAN_MOTION    = 15.50669557
ECCENTRICITY   = .00010082
INCLINATION    = 43.0010
RA_OF_ASC_NODE = 49.5528
ARG_OF_PERICENTER = 331.5360
MEAN_ANOMALY   = 28.5445

EPHEMERIS_TYPE = 0
CLASSIFICATION_TYPE = U
NORAD_CAT_ID   = 66985
ELEMENT_SET_NO = 999
REV_AT_EPOCH   = 491
BSTAR          = .19725152E-2
MEAN_MOTION_DOT = .117507E-2
MEAN_MOTION_DDOT = 0

CCSDS_OMM_VERS = 2.0
CREATION_DATE  = 
ORIGINATOR     = 

OBJECT_NAME    = STARLINK-36135
OBJECT_ID      = 2025-288AD
CENTER_NAME    = EARTH
REF_FRAME      = TEME
TIME_SYSTEM    = UTC
MEAN_ELEMENT_THEORY = SGP/SGP4

EPOCH          = 2026-01-01T06:11:30.126048
MEAN_MOTION    = 15.50610190
ECCENTRICITY   = .00012583
INCLINATION    = 43.0011
RA_OF_ASC_NODE = 49.5496
ARG_OF_PERICENTER = 274.7350
MEAN_ANOMALY   = 85.3366

EPHEMERIS_TYPE = 0
CLASSIFICATION_TYPE = U
NORAD_CAT_ID   = 66986
ELEMENT_SET_NO = 999
REV_AT_EPOCH   = 491
BSTAR          = .2025098E-2
MEAN_MOTION_DOT = .120439E-2
MEAN_MOTION_DDOT = 0

CCSDS_OMM_VERS = 2.0
CREATION_DATE  = 
ORIGINATOR     = 

OBJECT_NAME    = STARLINK-36147
OBJECT_ID      = 2025-288AE
CENTER_NAME    = EARTH
REF_FRAME      = TEME
TIME_SYSTEM    = UTC
MEAN_ELEMENT_THEORY = SGP/SGP4

EPOCH          = 2026-01-01T06:11:00.409632
MEAN_MOTION    = 15.50596969
ECCENTRICITY   = .00008716
INCLINATION    = 43.0009
RA_OF_ASC_NODE = 49.5469
ARG_OF_PERICENTER = 272.3179
MEAN_ANOMALY   = 87.7582

EPHEMERIS_TYPE = 0
CLASSIFICATION_TYPE = U
NORAD_CAT_ID   = 66987
ELEMENT_SET_NO = 999
REV_AT_EPOCH   = 491
BSTAR          = .85593927E-3
MEAN_MOTION_DOT = .50227E-3
MEAN_MOTION_DDOT = 0

CCSDS_OMM_VERS = 2.0
CREATION_DATE  = 
ORIGINATOR     = 

OBJECT_NAME    = YAOGAN-47
OBJECT_ID      = 2025-289A
CENTER_NAME    = EARTH
REF_FRAME      = TEME
TIME_SYSTEM    = UTC
MEAN_ELEMENT_THEORY = SGP/SGP4

EPOCH          = 2025-12-28T04:16:32.643840
MEAN_MOTION    = 15.23366104
ECCENTRICITY   = .00008556
INCLINATION    = 97.5253
RA_OF_ASC_NODE = 67.3364
ARG_OF_PERICENTER = 117.9958
MEAN_ANOMALY   = 242.1365

EPHEMERIS_TYPE = 0
CLASSIFICATION_TYPE = U
NORAD_CAT_ID   = 66988
ELEMENT_SET_NO = 999
REV_AT_EPOCH   = 289
BSTAR          = .2072964E-3
MEAN_MOTION_DOT = .4855E-4
MEAN_MOTION_DDOT = 0

