STARLINK-35770          
1 66977U 25288U   26001.26176103  .00080726  00000+0  13666-2 0  9991
2 66977  43.0009  49.5818 0001197 268.0522  92.0201 15.50601002  4919
STARLINK-35787          
1 66978U 25288V   26001.25002315  .00039452  00000+0  94841-3 0  9999
2 66978  43.0006  49.7428 0000927 277.5310 339.2845 15.40649891  4968
STARLINK-36107          
1 66979U 25288W   26001.26038834  .00103913  00000+0  17538-2 0  9997
2 66979  43.0015  49.5711 0001678 275.4975  84.5694 15.50577309  4912
STARLINK-36086          
1 66980U 25288X   26001.19573977 -.00663525  00000+0 -12653-1 0  9997
2 66980  43.0008  49.9447 0001110 250.4076 109.6664 15.49779247  4900
STARLINK-36142          
1 66981U 25288Y   26001.25970110  .00129655  00000+0  21758-2 0  9991
2 66981  43.0008  49.5647 0001315 253.9452 106.1264 15.50626026  4919
STARLINK-36113          
1 66982U 25288Z   26001.25935665  .00097434  00000+0  16459-2 0  9999
2 66982  43.0012  49.5617 0001414 270.0617  90.0081 15.50581922  4918
STARLINK-36145          
1 66983U 25288AA  26001.25867325  .00088678  00000+0  14998-2 0  9993
2 66983  43.0010  49.5557 0000924 255.5578 104.5180 15.50589012  4918
STARLINK-35591          
1 66984U 25288AB  26001.25901672  .00107365  00000+0  18091-2 0  9991
2 66984  43.0007  49.5580 0001182 267.6161  92.4563 15.50608301  4913
STARLINK-36103          
1 66985U 25288AC  26001.25833691  .00117507  00000+0  19725-2 0  9991
2 66985  43.0010  49.5528 0001008 331.5360  28.5445 15.50669557  4918
STARLINK-36135          
1 66986U 25288AD  26001.25798757  .00120439  00000+0  20251-2 0  9999
2 66986  43.0011  49.5496 0001258 274.7350  85.3366 15.50610190  4910
STARLINK-36147          
1 66987U 25288AE  26001.25764363  .00050227  00000+0  85594-3 0  9995
2 66987  43.0009  49.5469 0000871 272.3179  87.7582 15.50596969  4914
YAOGAN-47               
1 66988U 25289A   25362.17815560  .00004855  00000+0  20730-3 0  9990
2 66988  97.5253  67.3364 0000855 117.9958 242.1365 15.23366104  2890
